{
  "type": "FeatureCollection",
  "features": [
    {
      "type": "Feature",
      "properties": {
        "norad_id": 31321,
        "name": "FENGYUN 1C DEB",
        "group": "fengyun-1c-debris",
        "lat": -45.47523534111046,
        "lon": 89.20532327845311,
        "alt_km": 874.8757723266299,
        "timestamp": "2025-12-27T16:33:30.504218+00:00",
        "meta_object_name": "FENGYUN 1C DEB",
        "meta_object_id": "1999-025BPZ",
        "meta_epoch": "2025-12-21T11:18:43.092576",
        "meta_mean_motion": 14.13827699,
        "meta_eccentricity": 0.00303049,
        "meta_inclination": 98.7333,
        "meta_ra_of_asc_node": 74.1401,
        "meta_arg_of_pericenter": 153.2037,
        "meta_mean_anomaly": 207.0709,
        "meta_ephemeris_type": 0,
        "meta_classification_type": "U",
        "meta_norad_cat_id": 31321,
        "meta_element_set_no": 999,
        "meta_rev_at_epoch": 57507,
        "meta_bstar": 0.00012257196,
        "meta_mean_motion_dot": 1.9e-06,
        "meta_mean_motion_ddot": 0,
        "tle_line1": "1 31321U 99025BPZ 25355.47133209  .00000190  00000+0  12257-3 0  9993",
        "tle_line2": "2 31321  98.7333  74.1401 0030304 153.2037 207.0709 14.13827699575072"
      },
      "geometry": {
        "type": "Point",
        "coordinates": [
          89.20532327845311,
          -45.47523534111046
        ]
      }
    },
    {
      "type": "Feature",
      "properties": {
        "norad_id": 31322,
        "name": "FENGYUN 1C DEB",
        "group": "fengyun-1c-debris",
        "lat": -44.799967074062636,
        "lon": 72.53557103211197,
        "alt_km": 826.2351556255189,
        "timestamp": "2025-12-27T16:33:30.504228+00:00",
        "meta_object_name": "FENGYUN 1C DEB",
        "meta_object_id": "1999-025BQA",
        "meta_epoch": "2025-12-25T10:38:41.423136",
        "meta_mean_motion": 13.73002665,
        "meta_eccentricity": 0.0237967,
        "meta_inclination": 98.5719,
        "meta_ra_of_asc_node": 61.9077,
        "meta_arg_of_pericenter": 336.1945,
        "meta_mean_anomaly": 41.6385,
        "meta_ephemeris_type": 0,
        "meta_classification_type": "U",
        "meta_norad_cat_id": 31322,
        "meta_element_set_no": 999,
        "meta_rev_at_epoch": 62450,
        "meta_bstar": 0.00021153,
        "meta_mean_motion_dot": 2e-06,
        "meta_mean_motion_ddot": 0,
        "tle_line1": "1 31322U 99025BQA 25359.44353499  .00000200  00000+0  21153-3 0  9997",
        "tle_line2": "2 31322  98.5719  61.9077 0237967 336.1945  41.6385 13.73002665624504"
      },
      "geometry": {
        "type": "Point",
        "coordinates": [
          72.53557103211197,
          -44.799967074062636
        ]
      }
    },
    {
      "type": "Feature",
      "properties": {
        "norad_id": 31323,
        "name": "FENGYUN 1C DEB",
        "group": "fengyun-1c-debris",
        "lat": -67.99402535947826,
        "lon": 65.56611730827056,
        "alt_km": 813.2078905798462,
        "timestamp": "2025-12-27T16:33:30.504238+00:00",
        "meta_object_name": "FENGYUN 1C DEB",
        "meta_object_id": "1999-025BQB",
        "meta_epoch": "2025-12-20T21:43:51.769056",
        "meta_mean_motion": 14.27642156,
        "meta_eccentricity": 0.0030892,
        "meta_inclination": 99.4195,
        "meta_ra_of_asc_node": 34.0071,
        "meta_arg_of_pericenter": 56.5612,
        "meta_mean_anomaly": 303.8513,
        "meta_ephemeris_type": 0,
        "meta_classification_type": "U",
        "meta_norad_cat_id": 31323,
        "meta_element_set_no": 999,
        "meta_rev_at_epoch": 64097,
        "meta_bstar": 0.0010025,
        "meta_mean_motion_dot": 2.433e-05,
        "meta_mean_motion_ddot": 0,
        "tle_line1": "1 31323U 99025BQB 25354.90546029  .00002433  00000+0  10025-2 0  9992",
        "tle_line2": "2 31323  99.4195  34.0071 0030892  56.5612 303.8513 14.27642156640970"
      },
      "geometry": {
        "type": "Point",
        "coordinates": [
          65.56611730827056,
          -67.99402535947826
        ]
      }
    },
    {
      "type": "Feature",
      "properties": {
        "norad_id": 31324,
        "name": "FENGYUN 1C DEB",
        "group": "fengyun-1c-debris",
        "lat": 62.43689972410597,
        "lon": -94.44225392172447,
        "alt_km": 870.8650874082014,
        "timestamp": "2025-12-27T16:33:30.504248+00:00",
        "meta_object_name": "FENGYUN 1C DEB",
        "meta_object_id": "1999-025BQC",
        "meta_epoch": "2025-12-21T14:16:42.684672",
        "meta_mean_motion": 14.14700279,
        "meta_eccentricity": 0.0048997,
        "meta_inclination": 99.1242,
        "meta_ra_of_asc_node": 277.2633,
        "meta_arg_of_pericenter": 278.9209,
        "meta_mean_anomaly": 80.6419,
        "meta_ephemeris_type": 0,
        "meta_classification_type": "U",
        "meta_norad_cat_id": 31324,
        "meta_element_set_no": 999,
        "meta_rev_at_epoch": 96611,
        "meta_bstar": 0.00014071,
        "meta_mean_motion_dot": 2.27e-06,
        "meta_mean_motion_ddot": 0,
        "tle_line1": "1 31324U 99025BQC 25355.59493848  .00000227  00000+0  14071-3 0  9994",
        "tle_line2": "2 31324  99.1242 277.2633 0048997 278.9209  80.6419 14.14700279966112"
      },
      "geometry": {
        "type": "Point",
        "coordinates": [
          -94.44225392172447,
          62.43689972410597
        ]
      }
    },
    {
      "type": "Feature",
      "properties": {
        "norad_id": 31325,
        "name": "FENGYUN 1C DEB",
        "group": "fengyun-1c-debris",
        "lat": 79.8654406415624,
        "lon": -21.63469027528451,
        "alt_km": 821.8209619785139,
        "timestamp": "2025-12-27T16:33:30.504258+00:00",
        "meta_object_name": "FENGYUN 1C DEB",
        "meta_object_id": "1999-025BQD",
        "meta_epoch": "2025-12-23T23:59:08.872800",
        "meta_mean_motion": 14.16974364,
        "meta_eccentricity": 0.00722678,
        "meta_inclination": 98.9921,
        "meta_ra_of_asc_node": 92.2798,
        "meta_arg_of_pericenter": 188.6721,
        "meta_mean_anomaly": 171.3209,
        "meta_ephemeris_type": 0,
        "meta_classification_type": "U",
        "meta_norad_cat_id": 31325,
        "meta_element_set_no": 999,
        "meta_rev_at_epoch": 59937,
        "meta_bstar": 0.0020925352,
        "meta_mean_motion_dot": 4.268e-05,
        "meta_mean_motion_ddot": 0,
        "tle_line1": "1 31325U 99025BQD 25357.99940825  .00004268  00000+0  20925-2 0  9996",
        "tle_line2": "2 31325  98.9921  92.2798 0072267 188.6721 171.3209 14.16974364599379"
      },
      "geometry": {
        "type": "Point",
        "coordinates": [
          -21.63469027528451,
          79.8654406415624
        ]
      }
    },
    {
      "type": "Feature",
      "properties": {
        "norad_id": 31326,
        "name": "FENGYUN 1C DEB",
        "group": "fengyun-1c-debris",
        "lat": -60.78248308524584,
        "lon": 49.45212014996294,
        "alt_km": 565.7777709637085,
        "timestamp": "2025-12-27T16:33:30.504268+00:00",
        "meta_object_name": "FENGYUN 1C DEB",
        "meta_object_id": "1999-025BQE",
        "meta_epoch": "2025-12-25T15:31:10.913376",
        "meta_mean_motion": 15.01858626,
        "meta_eccentricity": 0.0013789,
        "meta_inclination": 98.961,
        "meta_ra_of_asc_node": 243.4824,
        "meta_arg_of_pericenter": 330.7691,
        "meta_mean_anomaly": 29.2756,
        "meta_ephemeris_type": 0,
        "meta_classification_type": "U",
        "meta_norad_cat_id": 31326,
        "meta_element_set_no": 999,
        "meta_rev_at_epoch": 73939,
        "meta_bstar": 0.0070355,
        "meta_mean_motion_dot": 0.00093137,
        "meta_mean_motion_ddot": 0,
        "tle_line1": "1 31326U 99025BQE 25359.64665409  .00093137  00000+0  70355-2 0  9998",
        "tle_line2": "2 31326  98.9610 243.4824 0013789 330.7691  29.2756 15.01858626739398"
      },
      "geometry": {
        "type": "Point",
        "coordinates": [
          49.45212014996294,
          -60.78248308524584
        ]
      }
    },
    {
      "type": "Feature",
      "properties": {
        "norad_id": 31327,
        "name": "FENGYUN 1C DEB",
        "group": "fengyun-1c-debris",
        "lat": -61.976030737518855,
        "lon": 168.37693192923354,
        "alt_km": 524.9302417066538,
        "timestamp": "2025-12-27T16:33:30.504278+00:00",
        "meta_object_name": "FENGYUN 1C DEB",
        "meta_object_id": "1999-025BQF",
        "meta_epoch": "2025-12-26T06:07:03.029088",
        "meta_mean_motion": 15.11611224,
        "meta_eccentricity": 0.0084184,
        "meta_inclination": 98.9827,
        "meta_ra_of_asc_node": 3.9817,
        "meta_arg_of_pericenter": 325.2884,
        "meta_mean_anomaly": 34.2865,
        "meta_ephemeris_type": 0,
        "meta_classification_type": "U",
        "meta_norad_cat_id": 31327,
        "meta_element_set_no": 999,
        "meta_rev_at_epoch": 303,
        "meta_bstar": 0.0013919,
        "meta_mean_motion_dot": 0.0002574,
        "meta_mean_motion_ddot": 0,
        "tle_line1": "1 31327U 99025BQF 25360.25489617  .00025740  00000+0  13919-2 0  9991",
        "tle_line2": "2 31327  98.9827   3.9817 0084184 325.2884  34.2865 15.11611224  3034"
      },
      "geometry": {
        "type": "Point",
        "coordinates": [
          168.37693192923354,
          -61.976030737518855
        ]
      }
    }
  ]
}